[{"OBJECT_NAME":"STARLINK-3696","OBJECT_ID":"2022-025K","EPOCH":"2026-03-10T00:00:02.999808","MEAN_MOTION":15.09748411,"ECCENTRICITY":0.00012461,"INCLINATION":53.0656,"RA_OF_ASC_NODE":34.4217,"ARG_OF_PERICENTER":91.4516,"MEAN_ANOMALY":315.6909,"EPHEMERIS_TYPE":0,"CLASSIFICATION_TYPE":"U","NORAD_CAT_ID":51965,"ELEMENT_SET_NO":999,"REV_AT_EPOCH":579,"BSTAR":0.0013311112,"MEAN_MOTION_DOT":0.00021497,"MEAN_MOTION_DDOT":0},{"OBJECT_NAME":"OBJECT A","OBJECT_ID":"2024-095A","EPOCH":"2026-03-09T22:38:35.638656","MEAN_MOTION":15.12064324,"ECCENTRICITY":0.0003947,"INCLINATION":97.539,"RA_OF_ASC_NODE":149.317,"ARG_OF_PERICENTER":111.635,"MEAN_ANOMALY":248.5301,"EPHEMERIS_TYPE":0,"CLASSIFICATION_TYPE":"U","NORAD_CAT_ID":59810,"ELEMENT_SET_NO":999,"REV_AT_EPOCH":9915,"BSTAR":0.00038280559,"MEAN_MOTION_DOT":6.522e-5,"MEAN_MOTION_DDOT":0}]
